NORAD_CAT_ID,OBJECT_NAME,OBJECT_TYPE,EPOCH,MEAN_MOTION,ECCENTRICITY,INCLINATION,RA_OF_ASC_NODE,ARG_OF_PERICENTER,MEAN_ANOMALY,BSTAR,MEAN_MOTION_DOT,MEAN_MOTION_DDOT,TLE_LINE0,TLE_LINE1,TLE_LINE2,SEMIMAJOR_AXIS,PERIOD,APOGEE,PERIGEE,DECAYED
52380.0,STARLINK-3793,PAYLOAD,2024-03-24 11:02:15,15.0886548,0.0001252,53.2159,149.9393,90.4282,269.6854,0.00021097,3.074e-05,0.0,0 STARLINK-3793,1 52380U 22045BB  24084.45990290  .00003074  00000-0  21097-3 0  9993,2 52380  53.2159 149.9393 0001252  90.4282 269.6854 15.08865480108080,6917.803,95.436,540.534,538.801,0.0
52380.0,STARLINK-3793,PAYLOAD,2024-03-25 04:31:31,15.08834248,0.0001174,53.2153,146.664,94.9755,265.1371,0.00012406,1.687e-05,0.0,0 STARLINK-3793,1 52380U 22045BB  24085.18856155  .00001687  00000-0  12406-3 0  9997,2 52380  53.2153 146.6640 0001174  94.9755 265.1371 15.08834248108195,6917.898,95.438,540.575,538.951,0.0
52380.0,STARLINK-3793,PAYLOAD,2024-03-25 20:25:23,15.08831766,0.0001485,53.2151,143.6956,95.5809,264.5353,-2.9658e-05,-7.6e-06,0.0,0 STARLINK-3793,1 52380U 22045BB  24085.85096545 -.00000760  00000-0 -29658-4 0  9991,2 52380  53.2151 143.6956 0001485  95.5809 264.5353 15.08831766108298,6917.906,95.438,540.798,538.743,0.0
52380.0,STARLINK-3793,PAYLOAD,2024-03-26 04:22:19,15.08828697,0.0001966,53.2154,142.2071,77.5222,282.599,-0.00027019,-4.584e-05,0.0,0 STARLINK-3793,1 52380U 22045BB  24086.18217129 -.00004584  00000-0 -27019-3 0  9997,2 52380  53.2154 142.2071 0001966  77.5222 282.5990 15.08828697108349,6917.915,95.438,541.14,538.42,0.0
52380.0,STARLINK-3793,PAYLOAD,2024-03-26 09:08:29,15.08825027,0.0001885,53.2175,141.3215,101.1348,258.9856,-0.00022084,-3.8e-05,0.0,0 STARLINK-3793,1 52380U 22045BB  24086.38089572 -.00003800  00000-0 -22084-3 0  9995,2 52380  53.2175 141.3215 0001885 101.1348 258.9856 15.08825027108370,6917.926,95.439,541.095,538.487,0.0
52380.0,STARLINK-3793,PAYLOAD,2024-03-27 12:10:01,15.08853945,0.0001729,53.2149,136.2611,88.2656,271.8534,0.00045894,7.026e-05,0.0,0 STARLINK-3793,1 52380U 22045BB  24087.50696701  .00007026  00000-0  45894-3 0  9994,2 52380  53.2149 136.2611 0001729  88.2656 271.8534 15.08853945108544,6917.838,95.437,540.899,538.507,0.0
52380.0,STARLINK-3793,PAYLOAD,2024-03-27 20:06:57,15.08843838,0.0001938,53.2154,134.7737,90.5365,269.5849,0.00025822,3.824e-05,0.0,0 STARLINK-3793,1 52380U 22045BB  24087.83816974  .00003824  00000-0  25822-3 0  9997,2 52380  53.2154 134.7737 0001938  90.5365 269.5849 15.08843838108595,6917.869,95.437,541.074,538.393,0.0
52380.0,STARLINK-3793,PAYLOAD,2024-03-28 12:00:49,15.08839575,0.0001831,53.2172,131.7981,89.1331,270.9871,0.00027108,4.029e-05,0.0,0 STARLINK-3793,1 52380U 22045BB  24088.50057192  .00004029  00000-0  27108-3 0  9998,2 52380  53.2172 131.7981 0001831  89.1331 270.9871 15.08839575108697,6917.882,95.438,541.013,538.48,0.0
52380.0,STARLINK-3793,PAYLOAD,2024-03-28 19:57:44,15.0884822,0.0001595,53.2166,130.3111,94.17,265.9474,0.0001022,1.339e-05,0.0,0 STARLINK-3793,1 52380U 22045BB  24088.83176666  .00001339  00000-0  10220-3 0  9990,2 52380  53.2166 130.3111 0001595  94.1700 265.9474 15.08848220108749,6917.855,95.437,540.824,538.617,0.0
52380.0,STARLINK-3793,PAYLOAD,2024-03-29 10:16:12,15.08856886,0.0001645,53.2158,127.6373,93.2316,266.8864,-2.0117e-05,-6.08e-06,0.0,0 STARLINK-3793,1 52380U 22045BB  24089.42792159 -.00000608  00000-0 -20117-4 0  9994,2 52380  53.2158 127.6373 0001645  93.2316 266.8864 15.08856886108838,6917.829,95.436,540.832,538.556,0.0
52380.0,STARLINK-3793,PAYLOAD,2024-03-29 19:48:31,15.08851808,0.0001546,53.2151,125.852,92.6343,267.4826,-7.4758e-05,-1.478e-05,0.0,0 STARLINK-3793,1 52380U 22045BB  24089.82536242 -.00001478  00000-0 -74758-4 0  9993,2 52380  53.2151 125.8520 0001546  92.6343 267.4826 15.08851808108898,6917.844,95.437,540.779,538.64,0.0
52380.0,STARLINK-3793,PAYLOAD,2024-03-30 02:10:04,15.08840947,0.0001585,53.2151,124.6632,91.6567,268.4606,3.5881e-05,2.83e-06,0.0,0 STARLINK-3793,1 52380U 22045BB  24090.09032709  .00000283  00000-0  35881-4 0  9998,2 52380  53.2151 124.6632 0001585  91.6567 268.4606 15.08840947108933,6917.877,95.437,540.839,538.646,0.0
52380.0,STARLINK-3793,PAYLOAD,2024-03-30 08:31:36,15.08842557,0.0001707,53.2164,123.4735,90.6914,269.4273,4.4511e-05,4.2e-06,0.0,0 STARLINK-3793,1 52380U 22045BB  24090.35528570  .00000420  00000-0  44511-4 0  9996,2 52380  53.2164 123.4735 0001707  90.6914 269.4273 15.08842557108973,6917.873,95.437,540.918,538.557,0.0
52380.0,STARLINK-3793,PAYLOAD,2024-03-30 19:39:18,15.08847898,0.0001655,53.2162,121.3925,88.9792,271.1389,-1.6674e-06,-3.15e-06,0.0,0 STARLINK-3793,1 52380U 22045BB  24090.81896207 -.00000315  00000-0 -16674-5 0  9997,2 52380  53.2162 121.3925 0001655  88.9792 271.1389 15.08847898109045,6917.856,95.437,540.866,538.576,0.0
52380.0,STARLINK-3793,PAYLOAD,2024-03-31 11:33:09,15.08847812,0.000183,53.2164,118.418,101.9963,258.1234,7.9717e-05,9.81e-06,0.0,0 STARLINK-3793,1 52380U 22045BB  24091.48135791  .00000981  00000-0  79717-4 0  9998,2 52380  53.2164 118.4180 0001830 101.9963 258.1234 15.08847812109149,6917.857,95.437,540.987,538.456,0.0
52380.0,STARLINK-3793,PAYLOAD,2024-04-01 01:51:38,15.08827251,0.0001174,53.2161,115.7424,85.421,274.6916,5.7421e-06,-1.96e-06,0.0,0 STARLINK-3793,1 52380U 22045BB  24092.07753437 -.00000196  00000-0  57421-5 0  9995,2 52380  53.2161 115.7424 0001174  85.4210 274.6916 15.08827251109234,6917.919,95.438,540.597,538.972,0.0
52380.0,STARLINK-3793,PAYLOAD,2024-04-01 08:13:11,15.08831616,0.0001547,53.216,114.5527,95.4448,264.6721,4.0979e-05,3.64e-06,0.0,0 STARLINK-3793,1 52380U 22045BB  24092.34249270  .00000364  00000-0  40979-4 0  9995,2 52380  53.2160 114.5527 0001547  95.4448 264.6721 15.08831616109279,6917.906,95.438,540.841,538.701,0.0
52380.0,STARLINK-3793,PAYLOAD,2024-04-02 11:14:44,15.08843559,0.0001539,53.2163,109.4946,96.2603,263.8564,8.9558e-05,1.138e-05,0.0,0 STARLINK-3793,1 52380U 22045BB  24093.46856521  .00001138  00000-0  89558-4 0  9998,2 52380  53.2163 109.4946 0001539  96.2603 263.8564 15.08843559109447,6917.87,95.437,540.799,538.67,0.0
52380.0,STARLINK-3793,PAYLOAD,2024-04-02 17:36:16,15.08842681,0.0001537,53.2164,108.3056,95.8464,264.2703,5.9551e-05,6.6e-06,0.0,0 STARLINK-3793,1 52380U 22045BB  24093.73352664  .00000660  00000-0  59551-4 0  9996,2 52380  53.2164 108.3056 0001537  95.8464 264.2703 15.08842681109485,6917.872,95.437,540.8,538.674,0.0
52380.0,STARLINK-3793,PAYLOAD,2024-04-02 23:57:49,15.0883693,0.0001546,53.2165,107.1164,98.0856,262.0311,0.00015371,2.159e-05,0.0,0 STARLINK-3793,1 52380U 22045BB  24093.99848974  .00002159  00000-0  15371-3 0  9994,2 52380  53.2165 107.1164 0001546  98.0856 262.0311 15.08836930109529,6917.89,95.438,540.824,538.685,0.0
52380.0,STARLINK-3793,PAYLOAD,2024-04-03 11:05:32,15.08833662,0.0001561,53.2172,105.038,100.0974,260.0195,0.00010061,1.313e-05,0.0,0 STARLINK-3793,1 52380U 22045BB  24094.46217620  .00001313  00000-0  10061-3 0  9997,2 52380  53.2172 105.0380 0001561 100.0974 260.0195 15.08833662109590,6917.9,95.438,540.845,538.685,0.0
52380.0,STARLINK-3793,PAYLOAD,2024-04-03 17:27:04,15.08837106,0.0001586,53.2174,103.8488,101.1643,258.9527,7.4769e-05,9.02e-06,0.0,0 STARLINK-3793,1 52380U 22045BB  24094.72713483  .00000902  00000-0  74769-4 0  9993,2 52380  53.2174 103.8488 0001586 101.1643 258.9527 15.08837106109636,6917.889,95.438,540.851,538.657,0.0
52380.0,STARLINK-3793,PAYLOAD,2024-04-04 07:45:32,15.08841931,0.00015,53.2172,101.1717,99.7595,260.3567,5.7019e-05,6.2e-06,0.0,0 STARLINK-3793,1 52380U 22045BB  24095.32329163  .00000620  00000-0  57019-4 0  9994,2 52380  53.2172 101.1717 0001500  99.7595 260.3567 15.08841931109726,6917.874,95.437,540.777,538.702,0.0
52380.0,STARLINK-3793,PAYLOAD,2024-04-04 17:17:51,15.08842639,0.0001444,53.2168,99.3866,92.9254,267.1904,4.9645e-05,5.02e-06,0.0,0 STARLINK-3793,1 52380U 22045BB  24095.72073074  .00000502  00000-0  49645-4 0  9990,2 52380  53.2168  99.3866 0001444  92.9254 267.1904 15.08842639109780,6917.872,95.437,540.736,538.738,0.0
52380.0,STARLINK-3793,PAYLOAD,2024-04-05 04:25:33,15.08835425,0.0001429,53.217,97.3051,92.9392,267.1764,8.1784e-05,1.014e-05,0.0,0 STARLINK-3793,1 52380U 22045BB  24096.18441541  .00001014  00000-0  81784-4 0  9998,2 52380  53.2170  97.3051 0001429  92.9392 267.1764 15.08835425109850,6917.894,95.438,540.748,538.771,0.0
52380.0,STARLINK-3793,PAYLOAD,2024-04-05 09:11:42,15.08839072,0.0001433,53.2169,96.4129,91.9319,268.1838,7.9239e-05,9.73e-06,0.0,0 STARLINK-3793,1 52380U 22045BB  24096.38313354  .00000973  00000-0  79239-4 0  9995,2 52380  53.2169  96.4129 0001433  91.9319 268.1838 15.08839072109885,6917.883,95.438,540.74,538.757,0.0
52380.0,STARLINK-3793,PAYLOAD,2024-04-05 17:08:38,15.08838967,0.000143,53.2168,94.9258,89.4781,270.6375,5.9828e-05,6.64e-06,0.0,0 STARLINK-3793,1 52380U 22045BB  24096.71433414  .00000664  00000-0  59828-4 0  9991,2 52380  53.2168  94.9258 0001430  89.4781 270.6375 15.08838967109934,6917.884,95.438,540.738,538.759,0.0
52380.0,STARLINK-3793,PAYLOAD,2024-04-06 05:51:43,15.088417,0.0001438,53.2165,92.5465,91.1751,268.9406,6.3252e-05,7.19e-06,0.0,0 STARLINK-3793,1 52380U 22045BB  24097.24425233  .00000719  00000-0  63252-4 0  9997,2 52380  53.2165  92.5465 0001438  91.1751 268.9406 15.08841700110015,6917.875,95.437,540.735,538.745,0.0
52380.0,STARLINK-3793,PAYLOAD,2024-04-06 09:02:29,15.08842971,0.0001436,53.2165,91.9517,91.073,269.0427,5.8119e-05,6.37e-06,0.0,0 STARLINK-3793,1 52380U 22045BB  24097.37673146  .00000637  00000-0  58119-4 0  9994,2 52380  53.2165  91.9517 0001436  91.0730 269.0427 15.08842971110038,6917.871,95.437,540.73,538.743,0.0
52380.0,STARLINK-3793,PAYLOAD,2024-04-06 23:20:57,15.08843184,0.0001434,53.2165,89.2757,91.1071,269.0085,8.6563e-05,1.09e-05,0.0,0 STARLINK-3793,1 52380U 22045BB  24097.97288937  .00001090  00000-0  86563-4 0  9998,2 52380  53.2165  89.2757 0001434  91.1071 269.0085 15.08843184110128,6917.871,95.437,540.728,538.744,0.0
